[{"OBJECT_NAME":"STARLINK-34436","OBJECT_ID":"2025-126Q","EPOCH":"2026-03-09T22:40:27.274368","MEAN_MOTION":14.98334656,"ECCENTRICITY":0.00023739,"INCLINATION":70.0033,"RA_OF_ASC_NODE":33.6651,"ARG_OF_PERICENTER":262.9707,"MEAN_ANOMALY":97.1182,"EPHEMERIS_TYPE":0,"CLASSIFICATION_TYPE":"U","NORAD_CAT_ID":64358,"ELEMENT_SET_NO":999,"REV_AT_EPOCH":4072,"BSTAR":0.00030079177,"MEAN_MOTION_DOT":3.498e-5,"MEAN_MOTION_DDOT":0},{"OBJECT_NAME":"COSMOS 2251 DEB","OBJECT_ID":"1993-036BKG","EPOCH":"2026-03-09T09:02:46.626720","MEAN_MOTION":15.0055284,"ECCENTRICITY":0.00290136,"INCLINATION":74.0178,"RA_OF_ASC_NODE":205.5033,"ARG_OF_PERICENTER":262.6992,"MEAN_ANOMALY":97.0897,"EPHEMERIS_TYPE":0,"CLASSIFICATION_TYPE":"U","NORAD_CAT_ID":37316,"ELEMENT_SET_NO":999,"REV_AT_EPOCH":87440,"BSTAR":0.002851028,"MEAN_MOTION_DOT":0.00036448,"MEAN_MOTION_DDOT":0}]
